STARLINK-4571           
1 53688U 22105AS  26068.65238105 -.00000770  00000+0 -55410-4 0  9996
2 53688  97.6023 310.1668 0001573 117.2615 242.8770 15.01261297193235
LEMUR-2-LUCILLE-ROSE    
1 65403U 25135BV  26068.85671001  .00014478  00000+0  12144-2 0  9991
2 65403  97.7607 185.3540 0009982 240.4750 119.5478 14.98437227 33752
